CIC_OEM_VERS = 2.0 
CREATION_DATE        = 2014-10-26T19:46:34.000    
ORIGINATOR = CNES 
META_START 
OBJECT_NAME          = PHILAE    
OBJECT_ID            = PHILAE    
CENTER_NAME          = CHURYUMOV-GERASIMENKO 
REF_FRAME            = EME2000    
TIME_SYSTEM = UTC
META_STOP 
 
2014-11-16T06:21:41.000 9.2913232116963895e-02 2.3080852566527854e+00 -4.1309909486047902e-01 -3.1572011625286716e-04 2.0713928803054165e-05 4.4722773451070168e-05
2014-11-16T06:51:41.000 -4.6938441522115215e-01 2.2790794158590937e+00 -3.0334233105485497e-01 -3.0571181824268104e-04 -5.2770182008197472e-05 7.6576610212092573e-05
2014-11-16T07:21:41.000 -9.9592116707433131e-01 2.1201370453196535e+00 -1.4036103765458652e-01 -2.7619841002366190e-04 -1.2288743504564322e-04 1.0354468485780882e-04
2014-11-16T07:51:41.000 -1.4531027796743579e+00 1.8413990302095402e+00 6.5446207689521363e-02 -2.2906291426832864e-04 -1.8516418986790650e-04 1.2390637280545007e-04
2014-11-16T08:21:41.000 -1.8117600250778609e+00 1.4606494906068963e+00 3.0094843407900701e-01 -1.6731268303586409e-04 -2.3562704778442534e-04 1.3636255205053805e-04
2014-11-16T08:51:41.000 -2.0490097542929471e+00 1.0021811141821440e+00 5.5112006318397966e-01 -9.4887521596209137e-05 -2.7105636345905792e-04 1.4011848993504086e-04
2014-11-16T09:21:41.000 -2.1497148943551618e+00 4.9524522735517673e-01 7.9999957539014765e-01 -1.6408320213918257e-05 -2.8919166592580625e-04 1.3493454909997295e-04
2014-11-16T09:51:41.000 -2.1074502279944838e+00 -2.7814506048899179e-02 1.0317078911369126e+00 6.3117769380839622e-05 -2.8887588156658255e-04 1.2114147675967823e-04
2014-11-16T10:21:41.000 -1.9249123371771160e+00 -5.3362568376055797e-01 1.2314614921585376e+00 1.3861680152270377e-04 -2.7012915810270213e-04 9.9619302329814473e-05
2014-11-16T10:51:41.000 -1.6137475550719369e+00 -9.8991640085423505e-01 1.3865156438620030e+00 2.0527176611326599e-04 -2.3414757932789201e-04 7.1741189602822188e-05
2014-11-16T11:21:41.000 -1.1938089031548127e+00 -1.3675742707558043e+00 1.4869775383542125e+00 2.5882992458877823e-04 -1.8322685174219930e-04 3.9285825586449872e-05
2014-11-16T11:51:41.000 -6.9188942386826091e-01 -1.6425038611681155e+00 1.5264374779341598e+00 2.9587414442895003e-04 -1.2061583377158840e-04 4.3239364428786417e-06
2014-11-16T12:21:41.000 -1.4001272295124467e-01 -1.7971640382290546e+00 1.5023778286313121e+00 3.1404092018853927e-04 -5.0309250991207522e-05 -3.0913829685730310e-05
2014-11-16T12:51:41.000 4.2661020963260410e-01 -1.8216871304960356e+00 1.4163336508313522e+00 3.1217117007353569e-04 2.3207176603254197e-05 -6.4179223094553976e-05
2014-11-16T13:21:41.000 9.7182754021290896e-01 -1.7145085088048055e+00 1.2737947590465941e+00 2.9038418846640338e-04 9.5242933470925348e-05 -9.3349835921444196e-05
2014-11-16T13:51:41.000 1.4608531616908964e+00 -1.4824664132899588e+00 1.0838554591364287e+00 2.5007003437898726e-04 1.6120197430276182e-04 -1.1656451664457279e-04
2014-11-16T14:21:41.000 1.8624861258789314e+00 -1.1403656579716563e+00 8.5863431091605102e-01 1.9380084260786146e-04 2.1687596206471535e-04 -1.3234211575052394e-04
2014-11-16T14:51:41.000 2.1511013349068837e+00 -7.1003305025202790e-01 6.1250093662503480e-01 1.2516671585280568e-04 2.5871276964582019e-04 -1.3967598655033990e-04
2014-11-16T15:21:41.000 2.3082844813992538e+00 -2.1892479023272257e-01 3.6115920590213141e-01 4.8546667558846172e-05 2.8404311336803782e-04 -1.3809821132484591e-04
2014-11-16T15:51:41.000 2.3240069226104634e+00 3.0162529679620331e-01 1.2064529351021952e-01 -3.1170768682486039e-05 2.9125085960765183e-04 -1.2770945572622091e-04
2014-11-16T16:21:41.000 2.1972655310119822e+00 8.1840492966083134e-01 -9.3695465143208145e-02 -1.0889943888561585e-04 2.7987613786617104e-04 -1.0917254607964734e-04
2014-11-16T16:51:41.000 1.9361466959748295e+00 1.2984423912413663e+00 -2.6818764167663234e-01 -1.7968007690989326e-04 2.5064468116060400e-04 -8.3670179368461588e-05
2014-11-16T17:21:41.000 1.5573103937252208e+00 1.7111101983521333e+00 -3.9169823786384506e-01 -2.3899671688773310e-04 2.0542152304963481e-04 -5.2829464684509918e-05
2014-11-16T17:51:41.000 1.0849272431209251e+00 2.0300792050762411e+00 -4.5634699638100684e-01 -2.8306482208337818e-04 1.4709200399181860e-04 -1.8618109855068883e-05
2014-11-16T18:21:41.000 5.4913636480795658e-01 2.2349984625118711e+00 -4.5800917924207052e-01 -3.0907274699678493e-04 7.9377680115795966e-05 1.6781122776312589e-05
2014-11-16T18:51:41.000 -1.5877563104360157e-02 2.3127936554039836e+00 -3.9657873539546840e-01 -3.1536112695316072e-04 6.5988795208193645e-06 5.1109681567205155e-05
2014-11-16T19:21:41.000 -5.7406536539717234e-01 2.2585012732952068e+00 -2.7597506704458008e-01 -3.0152874883327085e-04 -6.6600944628044778e-05 8.2177326287079830e-05
2014-11-16T19:51:41.000 -1.0898133892102215e+00 2.0755852937956525e+00 -1.0389296286210181e-01 -2.6845814987446550e-04 -1.3555147683001604e-04 1.0800187044455150e-04
2014-11-16T20:21:41.000 -1.5302157362032918e+00 1.7757161729130440e+00 1.0868834705611602e-01 -2.1825930970960659e-04 -1.9585351617972869e-04 1.2693564936266613e-04
2014-11-16T20:51:41.000 -1.8671737337529333e+00 1.3780262434223813e+00 3.4820569104661675e-01 -1.5413502853512680e-04 -2.4365965518175671e-04 1.3777064478029773e-04
2014-11-16T21:21:41.000 -2.0791886943235744e+00 9.0788902842981289e-01 5.9937731714565290e-01 -8.0176581563504574e-05 -2.7591975334825028e-04 1.3981555934526854e-04
2014-11-16T21:51:41.000 -2.1527335806549699e+00 3.9530035270315261e-01 8.4617790371063040e-01 -1.1026860939679102e-06 -2.9057554293710673e-04 1.3293992283803618e-04
2014-11-16T22:21:41.000 -2.0831160614931790e+00 -1.2703545881708347e-01 1.0728610112252190e+00 7.8041563232205701e-05 -2.8669195115003200e-04 1.1758241651028946e-04
2014-11-16T22:51:41.000 -1.8747778931628805e+00 -6.2579219192565438e-01 1.2649637412540946e+00 1.5220658312644378e-04 -2.6451676014307887e-04 9.4722884301421835e-05
2014-11-16T23:21:41.000 -1.5410115250790741e+00 -1.0691480315534823e+00 1.4102295022632672e+00 2.1666047643097334e-04 -2.2546479743573353e-04 6.5819816347102399e-05
2014-11-16T23:51:41.000 -1.1031120117000441e+00 -1.4288158653031204e+00 1.4993900078218800e+00 2.6729093792106243e-04 -1.7202766721660746e-04 3.2717294228459426e-05
2014-11-17T00:21:41.000 -5.8901833917040880e-01 -1.6818480664209197e+00 1.5267566146744111e+00 3.0086762898348538e-04 -1.0761478015563386e-04 -2.4726657495955063e-06
2014-11-17T00:51:41.000 -3.1530854215242751e-02 -1.8121006043693439e+00 1.4905832709820803e+00 3.1524828015671994e-04 -3.6335825018898030e-05 -3.7504864036843435e-05
2014-11-17T01:21:41.000 5.3378147186615343e-01 -1.8112630705352581e+00 1.3931779184520947e+00 3.0951537320441595e-04 3.7261438479753186e-05 -7.0144166589600511e-05
2014-11-17T01:51:41.000 1.0708504254998714e+00 -1.6793889015182404e+00 1.2407552403754034e+00 2.8403468062147255e-04 1.0848133735695753e-04 -9.8308111585479404e-05
2014-11-17T02:21:41.000 1.5454097845196533e+00 -1.4248919695418090e+00 1.0430401506658817e+00 2.4043192857598977e-04 1.7277987986337169e-04 -1.2019977518268046e-04
2014-11-17T02:51:41.000 1.9271815809581667e+00 -1.0640097585516706e+00 8.1264732238365112e-01 1.8148907208806085e-04 2.2605467262817161e-04 -1.3442241944550536e-04
2014-11-17T03:21:41.000 2.1918079050751951e+00 -6.1976737523028058e-01 5.6427634249981917e-01 1.1096679947313738e-04 2.6490666250047064e-04 -1.4006860723070528e-04
2014-11-17T03:51:41.000 2.3224049947347556e+00 -1.2050849520153786e-01 3.1377384510223660e-01 3.3364592345720347e-05 2.8685700403523293e-04 -1.3677809889698993e-04
2014-11-17T04:21:41.000 2.3106404581949480e+00 4.0191302785500777e-01 7.7122460074748711e-02 -4.6366351715391867e-05 2.9050521557397966e-04 -1.2476083643082707e-04
2014-11-17T04:51:41.000 2.1572648997080357e+00 9.1416551137354041e-01 -1.3057891544101674e-01 -1.2313901696697812e-04 2.7561853278902654e-04 -1.0478354847792679e-04
2014-11-17T05:21:41.000 1.8720640291047836e+00 1.3835660804215009e+00 -2.9607846070589150e-01 -1.9205513254703002e-04 2.4314675999884418e-04 -7.8120831526593706e-05
2014-11-17T05:51:41.000 1.4732343114555082e+00 1.7801659096653584e+00 -4.0881692781787149e-01 -2.4871769328296432e-04 1.9516167020759129e-04 -4.6473827625080746e-05
2014-11-17T06:21:41.000 9.8622199098240426e-01 2.0786610269212815e+00 -4.6160134587778867e-01 -2.8951149888675976e-04 1.3472482151025817e-04 -1.1861687711695696e-05
2014-11-17T06:51:41.000 4.4209956249010030e-01 2.2600067640988772e+00 -4.5106394882356138e-01 -3.1183381156627167e-04 6.5692222361972443e-05 2.3507254905498236e-05
2014-11-17T07:21:41.000 -1.2441672376783840e-01 2.3126328501022528e+00 -3.7787704657696586e-01 -3.1426041698978181e-04 -7.5316901463207306e-06 5.7376381124526952e-05
2014-11-17T07:51:41.000 -6.7718183881314764e-01 2.2331816208526432e+00 -2.4671013015789744e-01 -2.9663649218433856e-04 -8.0275063676580013e-05 8.7584763573870074e-05
2014-11-17T08:21:41.000 -1.1809281096454525e+00 2.0267222456480973e+00 -6.5931947485816766e-02 -2.6008648364020853e-04 -1.4789670533167480e-04 1.1220503864820650e-04
2014-11-17T08:51:41.000 -1.6035153768428436e+00 1.7064273029008765e+00 1.5292344162329841e-01 -2.0694236528873288e-04 -2.0608220043302845e-04 1.2966637678050793e-04
2014-11-17T09:21:41.000 -1.9179816107061236e+00 1.2927323391794499e+00 3.9589256508261450e-01 -1.4059485274094859e-04 -2.5111918185319559e-04 1.3885470478932840e-04
2014-11-17T09:51:41.000 -2.1042631493687014e+00 8.1203203517066291e-01 6.4747343954823910e-01 -6.5277068410432177e-05 -2.8013418759946431e-04 1.3918378641949991e-04
2014-11-17T10:21:41.000 -2.1504748064130297e+00 2.9499616513719096e-01 8.9161463222185688e-01 1.4205541487492984e-05 -2.9127599434298075e-04 1.3063262557475443e-04
2014-11-17T10:51:41.000 -2.0536681729466264e+00 -2.2538720527603107e-01 1.1127393791804292e+00 9.2781805508567364e-05 -2.8383372932396737e-04 1.1374680572488586e-04
